NORAD_CAT_ID,OBJECT_NAME,OBJECT_TYPE,EPOCH,MEAN_MOTION,ECCENTRICITY,INCLINATION,RA_OF_ASC_NODE,ARG_OF_PERICENTER,MEAN_ANOMALY,BSTAR,MEAN_MOTION_DOT,MEAN_MOTION_DDOT,TLE_LINE0,TLE_LINE1,TLE_LINE2,SEMIMAJOR_AXIS,PERIOD,APOGEE,PERIGEE,DECAYED
49410.0,STARLINK-3147,PAYLOAD,2022-04-16 14:00:01,15.08789097,0.0002587,53.2145,137.7047,25.8108,148.2783,0.0017055,0.00026922,0.0,0 STARLINK-3147,1 49410U 21104C   22106.58334491  .00026922  00000-0  17055-2 0  9995,2 49410  53.2145 137.7047 0002587  25.8108 148.2783 15.08789097  3566,6918.036,95.441,541.691,538.111,0.0
49410.0,STARLINK-3147,PAYLOAD,2022-04-16 22:00:01,15.08783181,0.0002393,53.2147,136.2064,28.3857,157.3199,0.0025261,0.00040082,0.0,0 STARLINK-3147,1 49410U 21104C   22106.91668981  .00040082  00000-0  25261-2 0  9997,2 49410  53.2147 136.2064 0002393  28.3857 157.3199 15.08783181 24928,6918.054,95.441,541.575,538.264,0.0
49410.0,STARLINK-3147,PAYLOAD,2022-04-17 14:00:01,15.08813276,0.0002648999999999,53.2147,133.2152,26.1774,182.5637,0.0030104,0.00047915,0.0,0 STARLINK-3147,1 49410U 21104C   22107.58334491  .00047915  00000-0  30104-2 0  9991,2 49410  53.2147 133.2152 0002649  26.1774 182.5637 15.08813276 25029,6917.962,95.439,541.66,537.995,0.0
49410.0,STARLINK-3147,PAYLOAD,2022-04-17 22:00:00,15.0882294,0.0002437,53.2151,131.7169,28.1955,192.1407,0.0026805,0.00042611,0.0,0 STARLINK-3147,1 49410U 21104C   22107.91667824  .00042611  00000-0  26805-2 0  9998,2 49410  53.2151 131.7169 0002437  28.1955 192.1407 15.08822940  3568,6917.933000000001,95.439,541.4830000000002,538.112,0.0
49410.0,STARLINK-3147,PAYLOAD,2022-04-18 06:00:00,15.08861322,0.0002573,53.2153,130.2216,29.012,202.9166,-0.0013443,-0.00021633,0.0,0 STARLINK-3147,1 49410U 21104C   22108.25001157 -.00021633  00000-0 -13443-2 0  9994,2 49410  53.2153 130.2216 0002573  29.0120 202.9166 15.08861322 25127,6917.815,95.436,541.46,537.9,0.0
49410.0,STARLINK-3147,PAYLOAD,2022-04-18 14:00:01,15.08850736,0.0002692,53.2151,128.7256,27.2467,216.2898,0.00076949,0.00011983,0.0,0 STARLINK-3147,1 49410U 21104C   22108.58334491  .00011983  00000-0  76949-3 0  9996,2 49410  53.2151 128.7256 0002692  27.2467 216.2898 15.08850736  3603,6917.848000000001,95.437,541.575,537.85,0.0
49410.0,STARLINK-3147,PAYLOAD,2022-04-18 22:00:00,15.08847191,0.0002447,53.2154,127.2274,29.344,225.8142,8.8481e-06,-1.48e-06,0.0,0 STARLINK-3147,1 49410U 21104C   22108.91667824 -.00000148  00000-0  88481-5 0  9990,2 49410  53.2154 127.2274 0002447  29.3440 225.8142 15.08847191 25223,6917.858,95.437,541.4159999999998,538.031,0.0
49410.0,STARLINK-3147,PAYLOAD,2022-04-19 14:00:01,15.08842785,0.0002664,53.2153,124.2361,26.7428,251.6113,-4.6801e-05,-1.033e-05,0.0,0 STARLINK-3147,1 49410U 21104C   22109.58334491 -.00001033  00000-0 -46801-4 0  9999,2 49410  53.2153 124.2361 0002664  26.7428 251.6113 15.08842785  3601,6917.871999999999,95.437,541.58,537.894,0.0
49410.0,STARLINK-3147,PAYLOAD,2022-04-20 06:00:00,15.08859277,0.0002597,53.2157,121.2431,29.8699,271.687,-0.0012809,-0.00020628,0.0,0 STARLINK-3147,1 49410U 21104C   22110.25001157 -.00020628  00000-0 -12809-2 0  9995,2 49410  53.2157 121.2431 0002597  29.8699 271.6870 15.08859277 25429,6917.821,95.436,541.4830000000002,537.89,0.0
49410.0,STARLINK-3147,PAYLOAD,2022-04-20 14:00:01,15.08870608,0.0002644,53.2154,119.7468,27.7562,285.4029,-0.0030661,-0.00048799,0.0,0 STARLINK-3147,1 49410U 21104C   22110.58334491 -.00048799  00000-0 -30661-2 0  9996,2 49410  53.2154 119.7468 0002644  27.7562 285.4029 15.08870608  3591,6917.7869999999975,95.436,541.481,537.823,0.0
49410.0,STARLINK-3147,PAYLOAD,2022-04-20 22:00:00,15.08808364,0.0002405,53.2155,118.2489,30.6937,294.0921,0.0031361,0.00049935,0.0,0 STARLINK-3147,1 49410U 21104C   22110.91667824  .00049935  00000-0  31361-2 0  9991,2 49410  53.2155 118.2489 0002405  30.6937 294.0921 15.08808364  3589,6917.977,95.44,541.506,538.178,0.0
49410.0,STARLINK-3147,PAYLOAD,2022-04-21 14:00:01,15.0884975,0.0002645,53.2153,115.2578,29.0096,318.9389,-0.00089153,-0.00014454,0.0,0 STARLINK-3147,1 49410U 21104C   22111.58334491 -.00014454  00000-0 -89153-3 0  9999,2 49410  53.2153 115.2578 0002645  29.0096 318.9389 15.08849750  3563,6917.851,95.437,541.545,537.886,0.0
49410.0,STARLINK-3147,PAYLOAD,2022-04-21 22:00:00,15.08822611,0.0002462,53.2154,113.76,33.4613,326.0947,0.0031517,0.00050206,0.0,0 STARLINK-3147,1 49410U 21104C   22111.91667824  .00050206  00000-0  31517-2 0  9998,2 49410  53.2154 113.7600 0002462  33.4613 326.0947 15.08822611  3594,6917.934,95.439,541.502,538.095,0.0
49410.0,STARLINK-3147,PAYLOAD,2022-04-22 14:00:01,15.08879471,0.000268,53.2153,110.7687,30.1053,352.6509,-0.0043203,-0.00068472,0.0,0 STARLINK-3147,1 49410U 21104C   22112.58334491 -.00068472  00000-0 -43203-2 0  9994,2 49410  53.2153 110.7687 0002680  30.1053 352.6509 15.08879471 25789,6917.76,95.435,541.479,537.771,0.0
49410.0,STARLINK-3147,PAYLOAD,2022-04-23 06:00:02,15.08834988,0.0002661,53.2156,107.7762,31.0402,14.9848,-0.0023979,-0.00038246,0.0,0 STARLINK-3147,1 49410U 21104C   22113.25002315 -.00038246  00000-0 -23979-2 0  9990,2 49410  53.2156 107.7762 0002661  31.0402  14.9848 15.08834988 25888,6917.896,95.438,541.602,537.92,0.0
49410.0,STARLINK-3147,PAYLOAD,2022-04-23 14:00:01,15.08830658,0.0002672,53.2155,106.2795,29.1071,28.4192,-0.001272,-0.00020471,0.0,0 STARLINK-3147,1 49410U 21104C   22113.58334491 -.00020471  00000-0 -12720-2 0  9992,2 49410  53.2155 106.2795 0002672  29.1071  28.4192 15.08830658  3573,6917.909000000002,95.438,541.622,537.925,0.0
49410.0,STARLINK-3147,PAYLOAD,2022-04-23 22:00:00,15.0880761,0.000253,53.2157,104.7817,33.4682,35.6368,0.0027243,0.00043299,0.0,0 STARLINK-3147,1 49410U 21104C   22113.91667824  .00043299  00000-0  27243-2 0  9995,2 49410  53.2157 104.7817 0002530  33.4682  35.6368 15.08807610 25988,6917.979,95.44,541.595,538.094,0.0
49410.0,STARLINK-3147,PAYLOAD,2022-04-24 14:00:01,15.0885536,0.0002755,53.2158,101.7903,31.5642,60.7038,-0.001271,-0.00020469,0.0,0 STARLINK-3147,1 49410U 21104C   22114.58334491 -.00020469  00000-0 -12710-2 0  9999,2 49410  53.2158 101.7903 0002755  31.5642  60.7038 15.08855360 26086,6917.833000000001,95.437,541.604,537.793,0.0
49410.0,STARLINK-3147,PAYLOAD,2022-04-25 14:00:01,15.08849275,0.0002736,53.2161,97.3008,32.0663,94.9883,-0.0014165999999999,-0.0002277,0.0,0 STARLINK-3147,1 49410U 21104C   22115.58334491 -.00022770  00000-0 -14166-2 0  9994,2 49410  53.2161  97.3008 0002736  32.0663  94.9883 15.08849275 26236,6917.852,95.437,541.61,537.8240000000002,0.0
49410.0,STARLINK-3147,PAYLOAD,2022-04-25 22:00:00,15.08836439,0.0002593,53.2165,95.8032,35.9217,102.7289,0.0017375,0.00027471,0.0,0 STARLINK-3147,1 49410U 21104C   22115.91667824  .00027471  00000-0  17375-2 0  9996,2 49410  53.2165  95.8032 0002593  35.9217 102.7289 15.08836439  3611,6917.891,95.438,541.55,537.962,0.0
49410.0,STARLINK-3147,PAYLOAD,2022-04-26 06:00:00,15.08846833,0.000277,53.2165,94.3086,32.8187,117.4405,-0.0018593,-0.00029765,0.0,0 STARLINK-3147,1 49410U 21104C   22116.25001157 -.00029765  00000-0 -18593-2 0  9998,2 49410  53.2165  94.3086 0002770  32.8187 117.4405 15.08846833 26339,6917.86,95.437,541.641,537.808,0.0
49410.0,STARLINK-3147,PAYLOAD,2022-04-26 14:00:01,15.08848317,0.0002678,53.2162,92.8113,32.5033,129.4048,-0.0015556,-0.00024968,0.0,0 STARLINK-3147,1 49410U 21104C   22116.58335648 -.00024968  00000-0 -15556-2 0  9995,2 49410  53.2162  92.8113 0002678  32.5033 129.4048 15.08848317  3604,6917.855,95.437,541.573,537.867,0.0
49410.0,STARLINK-3147,PAYLOAD,2022-04-26 22:00:00,15.08839814,0.0002529,53.2167,91.314,36.1069,137.3319,0.001433,0.00022592,0.0,0 STARLINK-3147,1 49410U 21104C   22116.91667824  .00022592  00000-0  14330-2 0  9994,2 49410  53.2167  91.3140 0002529  36.1069 137.3319 15.08839814 26434,6917.880999999999,95.438,541.495,537.996,0.0
49410.0,STARLINK-3147,PAYLOAD,2022-04-27 14:00:01,15.08847164,0.0002586,53.2162,88.3218,32.6067,164.0874,-0.0015414,-0.00024742,0.0,0 STARLINK-3147,1 49410U 21104C   22117.58335648 -.00024742  00000-0 -15414-2 0  9999,2 49410  53.2162  88.3218 0002586  32.6067 164.0874 15.08847164 26534,6917.858,95.437,541.512,537.935,0.0
49410.0,STARLINK-3147,PAYLOAD,2022-04-28 06:00:00,15.08824453,0.0002612,53.2164,85.3301,32.2389,187.5983,0.0010475,0.00016415,0.0,0 STARLINK-3147,1 49410U 21104C   22118.25001157  .00016415  00000-0  10475-2 0  9997,2 49410  53.2164  85.3301 0002612  32.2389 187.5983 15.08824453 26637,6917.928000000001,95.439,541.6,537.986,0.0
49410.0,STARLINK-3147,PAYLOAD,2022-04-28 14:00:01,15.08858278,0.0002479,53.2161,83.8325,33.0301,198.3943,-0.0010216,-0.00016519,0.0,0 STARLINK-3147,1 49410U 21104C   22118.58334491 -.00016519  00000-0 -10216-2 0  9993,2 49410  53.2161  83.8325 0002479  33.0301 198.3943 15.08858278  3607,6917.825,95.436,541.404,537.975,0.0
49410.0,STARLINK-3147,PAYLOAD,2022-04-29 14:00:01,15.08843781,0.0002335,53.2161,79.3432,30.2833,235.9572,-0.0013318,-0.00021424,0.0,0 STARLINK-3147,1 49410U 21104C   22119.58334491 -.00021424  00000-0 -13318-2 0  9991,2 49410  53.2161  79.3432 0002335  30.2833 235.9572 15.08843781 26835,6917.869000000002,95.437,541.349,538.119,0.0
49410.0,STARLINK-3147,PAYLOAD,2022-04-29 22:00:00,15.08836778,0.000223,53.2163,77.8465,32.7735,245.0517,-0.00098244,-0.00015889,0.0,0 STARLINK-3147,1 49410U 21104C   22119.91667824 -.00015889  00000-0 -98244-3 0  9997,2 49410  53.2163  77.8465 0002230  32.7735 245.0517 15.08836778  3562,6917.89,95.438,541.298,538.2130000000002,0.0
49410.0,STARLINK-3147,PAYLOAD,2022-04-30 14:00:01,15.08839219,0.0002293,53.2164,74.8542,28.0724,272.9188,-0.0024677,-0.00039348,0.0,0 STARLINK-3147,1 49410U 21104C   22120.58334491 -.00039348  00000-0 -24677-2 0  9997,2 49410  53.2164  74.8542 0002293  28.0724 272.9188 15.08839219  3567,6917.8830000000025,95.438,541.3340000000002,538.1619999999998,0.0
